{"type": "FeatureCollection", "features": [ {"type": "Feature", "properties": {"norad_id": 66569, "name": "STARLINK-35835", "group": "last-30-days", "lat": 2.9787169097218182, "lon": 139.1575544953528, "alt_km": 414.36582577658373, "timestamp": "2025-12-10T04:57:28.366411+00:00", "meta": {"OBJECT_NAME": "STARLINK-35835", "OBJECT_ID": "2025-268N", "EPOCH": "2025-12-09T20:00:01.999008", "MEAN_MOTION": 15.50566468, "ECCENTRICITY": 0.0001825, "INCLINATION": 43.0004, "RA_OF_ASC_NODE": 138.14, "ARG_OF_PERICENTER": 276.3582, "MEAN_ANOMALY": 162.2451, "EPHEMERIS_TYPE": 0, "CLASSIFICATION_TYPE": "U", "NORAD_CAT_ID": 66569, "ELEMENT_SET_NO": 999, "REV_AT_EPOCH": 420, "BSTAR": -0.00010844, "MEAN_MOTION_DOT": -6.695e-05, "MEAN_MOTION_DDOT": 0}, "tle": {"line1": "1 66569U 25268N   25343.83335647 -.00006695  00000+0 -10844-3 0  9998", "line2": "2 66569  43.0004 138.1400 0001825 276.3582 162.2451 15.50566468  4204"}}, "geometry": {"type": "Point", "coordinates": [139.1575544953528, 2.9787169097218182]}}, {"type": "Feature", "properties": {"norad_id": 66570, "name": "STARLINK-35834", "group": "last-30-days", "lat": 4.285906343646649, "lon": 140.56438966576752, "alt_km": 414.28426000622767, "timestamp": "2025-12-10T04:57:28.366421+00:00", "meta": {"OBJECT_NAME": "STARLINK-35834", "OBJECT_ID": "2025-268P", "EPOCH": "2025-12-09T20:00:01.999008", "MEAN_MOTION": 15.50612365, "ECCENTRICITY": 0.0001594, "INCLINATION": 43.0007, "RA_OF_ASC_NODE": 138.1351, "ARG_OF_PERICENTER": 278.0843, "MEAN_ANOMALY": 162.4299, "EPHEMERIS_TYPE": 0, "CLASSIFICATION_TYPE": "U", "NORAD_CAT_ID": 66570, "ELEMENT_SET_NO": 999, "REV_AT_EPOCH": 420, "BSTAR": -0.0017647, "MEAN_MOTION_DOT": -0.00102646, "MEAN_MOTION_DDOT": 0}, "tle": {"line1": "1 66570U 25268P   25343.83335647 -.00102646  00000+0 -17647-2 0  9990", "line2": "2 66570  43.0007 138.1351 0001594 278.0843 162.4299 15.50612365  4206"}}, "geometry": {"type": "Point", "coordinates": [140.56438966576752, 4.285906343646649]}}, {"type": "Feature", "properties": {"norad_id": 66571, "name": "STARLINK-35836", "group": "last-30-days", "lat": 5.588652190591142, "lon": 141.97421454323097, "alt_km": 414.1038573125552, "timestamp": "2025-12-10T04:57:28.366436+00:00", "meta": {"OBJECT_NAME": "STARLINK-35836", "OBJECT_ID": "2025-268Q", "EPOCH": "2025-12-09T20:00:01.999008", "MEAN_MOTION": 15.50597129, "ECCENTRICITY": 0.0001825, "INCLINATION": 43.0006, "RA_OF_ASC_NODE": 138.1303, "ARG_OF_PERICENTER": 276.7034, "MEAN_ANOMALY": 165.7241, "EPHEMERIS_TYPE": 0, "CLASSIFICATION_TYPE": "U", "NORAD_CAT_ID": 66571, "ELEMENT_SET_NO": 999, "REV_AT_EPOCH": 420, "BSTAR": -0.00097576, "MEAN_MOTION_DOT": -0.00057207, "MEAN_MOTION_DDOT": 0}, "tle": {"line1": "1 66571U 25268Q   25343.83335647 -.00057207  00000+0 -97576-3 0  9993", "line2": "2 66571  43.0006 138.1303 0001825 276.7034 165.7241 15.50597129  4200"}}, "geometry": {"type": "Point", "coordinates": [141.97421454323097, 5.588652190591142]}}, {"type": "Feature", "properties": {"norad_id": 66572, "name": "STARLINK-35870", "group": "last-30-days", "lat": 6.884026653767694, "lon": 143.38706014153587, "alt_km": 413.8600988700464, "timestamp": "2025-12-10T04:57:28.366449+00:00", "meta": {"OBJECT_NAME": "STARLINK-35870", "OBJECT_ID": "2025-268R", "EPOCH": "2025-12-09T20:00:01.999008", "MEAN_MOTION": 15.50584696, "ECCENTRICITY": 0.0001728, "INCLINATION": 43.0007, "RA_OF_ASC_NODE": 138.1266, "ARG_OF_PERICENTER": 280.5141, "MEAN_ANOMALY": 163.8309, "EPHEMERIS_TYPE": 0, "CLASSIFICATION_TYPE": "U", "NORAD_CAT_ID": 66572, "ELEMENT_SET_NO": 999, "REV_AT_EPOCH": 420, "BSTAR": -0.00053116, "MEAN_MOTION_DOT": -0.00031384, "MEAN_MOTION_DDOT": 0}, "tle": {"line1": "1 66572U 25268R   25343.83335647 -.00031384  00000+0 -53116-3 0  9994", "line2": "2 66572  43.0007 138.1266 0001728 280.5141 163.8309 15.50584696  4203"}}, "geometry": {"type": "Point", "coordinates": [143.38706014153587, 6.884026653767694]}}, {"type": "Feature", "properties": {"norad_id": 66573, "name": "STARLINK-35650", "group": "last-30-days", "lat": 8.186668128817987, "lon": 144.8184644009206, "alt_km": 413.4903044537132, "timestamp": "2025-12-10T04:57:28.366459+00:00", "meta": {"OBJECT_NAME": "STARLINK-35650", "OBJECT_ID": "2025-268S", "EPOCH": "2025-12-09T20:00:01.999008", "MEAN_MOTION": 15.50586027, "ECCENTRICITY": 0.0002387, "INCLINATION": 43.0003, "RA_OF_ASC_NODE": 138.1209, "ARG_OF_PERICENTER": 287.9959, "MEAN_ANOMALY": 158.2698, "EPHEMERIS_TYPE": 0, "CLASSIFICATION_TYPE": "U", "NORAD_CAT_ID": 66573, "ELEMENT_SET_NO": 999, "REV_AT_EPOCH": 420, "BSTAR": -0.00053631, "MEAN_MOTION_DOT": -0.00031688, "MEAN_MOTION_DDOT": 0}, "tle": {"line1": "1 66573U 25268S   25343.83335647 -.00031688  00000+0 -53631-3 0  9994", "line2": "2 66573  43.0003 138.1209 0002387 287.9959 158.2698 15.50586027  4206"}}, "geometry": {"type": "Point", "coordinates": [144.8184644009206, 8.186668128817987]}}, {"type": "Feature", "properties": {"norad_id": 66574, "name": "STARLINK-35812", "group": "last-30-days", "lat": 9.468956811692163, "lon": 146.24242776418657, "alt_km": 413.7216839095545, "timestamp": "2025-12-10T04:57:28.366471+00:00", "meta": {"OBJECT_NAME": "STARLINK-35812", "OBJECT_ID": "2025-268T", "EPOCH": "2025-12-09T20:00:01.999008", "MEAN_MOTION": 15.50598341, "ECCENTRICITY": 0.0002124, "INCLINATION": 43.0002, "RA_OF_ASC_NODE": 138.1155, "ARG_OF_PERICENTER": 274.7694, "MEAN_ANOMALY": 173.4, "EPHEMERIS_TYPE": 0, "CLASSIFICATION_TYPE": "U", "NORAD_CAT_ID": 66574, "ELEMENT_SET_NO": 999, "REV_AT_EPOCH": 420, "BSTAR": -0.00089676, "MEAN_MOTION_DOT": -0.00052637, "MEAN_MOTION_DDOT": 0}, "tle": {"line1": "1 66574U 25268T   25343.83335647 -.00052637  00000+0 -89676-3 0  9990", "line2": "2 66574  43.0002 138.1155 0002124 274.7694 173.4000 15.50598341  4203"}}, "geometry": {"type": "Point", "coordinates": [146.24242776418657, 9.468956811692163]}}, {"type": "Feature", "properties": {"norad_id": 66575, "name": "STARLINK-35810", "group": "last-30-days", "lat": 10.75609707347816, "lon": 147.68998695566515, "alt_km": 413.49294361012744, "timestamp": "2025-12-10T04:57:28.366483+00:00", "meta": {"OBJECT_NAME": "STARLINK-35810", "OBJECT_ID": "2025-268U", "EPOCH": "2025-12-09T20:00:01.999008", "MEAN_MOTION": 15.50603947, "ECCENTRICITY": 0.0002014, "INCLINATION": 43.0002, "RA_OF_ASC_NODE": 138.1109, "ARG_OF_PERICENTER": 278.0881, "MEAN_ANOMALY": 172.0022, "EPHEMERIS_TYPE": 0, "CLASSIFICATION_TYPE": "U", "NORAD_CAT_ID": 66575, "ELEMENT_SET_NO": 999, "REV_AT_EPOCH": 420, "BSTAR": -0.0010515, "MEAN_MOTION_DOT": -0.00061601, "MEAN_MOTION_DDOT": 0}, "tle": {"line1": "1 66575U 25268U   25343.83335647 -.00061601  00000+0 -10515-2 0  9997", "line2": "2 66575  43.0002 138.1109 0002014 278.0881 172.0022 15.50603947  4204"}}, "geometry": {"type": "Point", "coordinates": [147.68998695566515, 10.75609707347816]}}, {"type": "Feature", "properties": {"norad_id": 66576, "name": "STARLINK-35814", "group": "last-30-days", "lat": 12.033011254451297, "lon": 149.14556690492026, "alt_km": 413.52907194926956, "timestamp": "2025-12-10T04:57:28.366493+00:00", "meta": {"OBJECT_NAME": "STARLINK-35814", "OBJECT_ID": "2025-268V", "EPOCH": "2025-12-09T20:00:01.999008", "MEAN_MOTION": 15.50599061, "ECCENTRICITY": 0.0002002, "INCLINATION": 43.0006, "RA_OF_ASC_NODE": 138.106, "ARG_OF_PERICENTER": 270.7796, "MEAN_ANOMALY": 181.2348, "EPHEMERIS_TYPE": 0, "CLASSIFICATION_TYPE": "U", "NORAD_CAT_ID": 66576, "ELEMENT_SET_NO": 999, "REV_AT_EPOCH": 420, "BSTAR": -0.0010294, "MEAN_MOTION_DOT": -0.00060317, "MEAN_MOTION_DDOT": 0}, "tle": {"line1": "1 66576U 25268V   25343.83335647 -.00060317  00000+0 -10294-2 0  9995", "line2": "2 66576  43.0006 138.1060 0002002 270.7796 181.2348 15.50599061  4200"}}, "geometry": {"type": "Point", "coordinates": [149.14556690492026, 12.033011254451297]}}, {"type": "Feature", "properties": {"norad_id": 66577, "name": "STARLINK-35815", "group": "last-30-days", "lat": 13.298828911979594, "lon": 150.6114936240628, "alt_km": 413.27872423252484, "timestamp": "2025-12-10T04:57:28.366504+00:00", "meta": {"OBJECT_NAME": "STARLINK-35815", "OBJECT_ID": "2025-268W", "EPOCH": "2025-12-09T20:00:01.999008", "MEAN_MOTION": 15.50573012, "ECCENTRICITY": 0.0001948, "INCLINATION": 43.0006, "RA_OF_ASC_NODE": 138.1014, "ARG_OF_PERICENTER": 273.4655, "MEAN_ANOMALY": 180.4728, "EPHEMERIS_TYPE": 0, "CLASSIFICATION_TYPE": "U", "NORAD_CAT_ID": 66577, "ELEMENT_SET_NO": 999, "REV_AT_EPOCH": 420, "BSTAR": -0.00021564, "MEAN_MOTION_DOT": -0.00012969, "MEAN_MOTION_DDOT": 0}, "tle": {"line1": "1 66577U 25268W   25343.83335647 -.00012969  00000+0 -21564-3 0  9999", "line2": "2 66577  43.0006 138.1014 0001948 273.4655 180.4728 15.50573012  4203"}}, "geometry": {"type": "Point", "coordinates": [150.6114936240628, 13.298828911979594]}}, {"type": "Feature", "properties": {"norad_id": 66578, "name": "STARLINK-35743", "group": "last-30-days", "lat": 14.562729621331812, "lon": 152.1003778630957, "alt_km": 413.06577690704216, "timestamp": "2025-12-10T04:57:28.366513+00:00", "meta": {"OBJECT_NAME": "STARLINK-35743", "OBJECT_ID": "2025-268X", "EPOCH": "2025-12-09T20:00:01.999008", "MEAN_MOTION": 15.50608431, "ECCENTRICITY": 0.0001845, "INCLINATION": 43.0007, "RA_OF_ASC_NODE": 138.0966, "ARG_OF_PERICENTER": 276.9434, "MEAN_ANOMALY": 178.9001, "EPHEMERIS_TYPE": 0, "CLASSIFICATION_TYPE": "U", "NORAD_CAT_ID": 66578, "ELEMENT_SET_NO": 999, "REV_AT_EPOCH": 420, "BSTAR": -0.001228, "MEAN_MOTION_DOT": -0.00071805, "MEAN_MOTION_DDOT": 0}, "tle": {"line1": "1 66578U 25268X   25343.83335647 -.00071805  00000+0 -12280-2 0  9998", "line2": "2 66578  43.0007 138.0966 0001845 276.9434 178.9001 15.50608431  4209"}}, "geometry": {"type": "Point", "coordinates": [152.1003778630957, 14.562729621331812]}}]}